METEOSAT-7              
1 24932U 97049B   17043.54986520  .00000031  00000-0  00000+0 0  9996
2 24932  10.5078  38.3739 0001515 291.1834  68.8772  1.00270996 71219
NOAA 15                 
1 25338U 98030A   17044.56421669  .00000003  00000-0  20061-4 0  9992
2 25338  98.7849  55.2106 0010209 200.4007 159.6766 14.25777141975394
METEOSAT-8 (MSG-1)      
1 27509U 02040B   17044.15121567  .00000121  00000-0  00000+0 0  9996
2 27509   4.6267  58.8281 0000678 229.3238 311.0103  1.00266881 53045
KALPANA-1 (METSAT 1)    
1 27525U 02043A   17042.55878339 -.00000099  00000-0  00000+0 0  9990
2 27525   6.1405  56.0665 0015772 231.6243 128.3945  1.00272838 52820
INSAT-3A                
1 27714U 03013A   17044.48409351 -.00000256  00000-0  00000+0 0  9991
2 27714   0.8955  88.7117 0016826 228.5025 294.2787  0.99803502 50740
NOAA 18                 
1 28654U 05018A   17044.57358822 -.00000020  00000-0  14465-4 0  9992
2 28654  99.1915  63.7113 0015093  60.7091 299.5586 14.12324894604814
METEOSAT-9 (MSG-2)      
1 28912U 05049B   17044.09080993  .00000040  00000-0  00000+0 0  9997
2 28912   1.9629  70.5013 0000131  28.0037  87.0214  1.00264784 40875
HIMAWARI-7 (MTSAT-2)    
1 28937U 06004A   17043.87427983 -.00000266  00000-0  00000+0 0  9996
2 28937   0.0423 265.4461 0003784  61.7833 275.5998  1.00270731 40143
FORMOSAT-3 FM6          
1 29047U 06011A   17043.54550377  .00000052  00000-0  36702-4 0  9990
2 29047  71.9787  81.5076 0050193   4.4122 355.7446 14.28561577566963
FORMOSAT-3 FM1          
1 29048U 06011B   17043.88021576 -.00000007  00000-0  13760-4 0  9992
2 29048  71.9692 353.1083 0045533 319.6006  98.2909 14.28498171569504
FORMOSAT-3 FM5          
1 29049U 06011C   17044.55971783  .00000035  00000-0  30232-4 0  9995
2 29049  72.0207 156.4804 0035211 355.5450   4.5367 14.28541991565376
FORMOSAT-3 FM3          
1 29050U 06011D   17043.52976979  .00000171  00000-0  46778-4 0  9998
2 29050  72.0152  68.9766 0049323  20.7144 339.5992 14.58449863578390
FORMOSAT-3 FM4          
1 29051U 06011E   17043.67271344  .00000052  00000-0  36186-4 0  9999
2 29051  72.0052  62.5797 0070477 236.6949 122.7425 14.28564329567831
FORMOSAT-3 FM2          
1 29052U 06011F   17044.17482298  .00000068  00000-0  43203-4 0  9993
2 29052  72.0349 132.1499 0041619 319.7768  40.0290 14.28652804566222
GOES 13                 
1 29155U 06018A   17043.80983661 -.00000274  00000-0  00000+0 0  9996
2 29155   0.3192  99.7660 0003575 306.7895 313.4369  1.00275762 39319
METOP-A                 
1 29499U 06044A   17043.71592578  .00000001  00000-0  20205-4 0  9990
2 29499  98.6962 105.3190 0001613 140.1580 331.5405 14.21497233535453
FENGYUN 2D              
1 29640U 06053A   17043.61300876 -.00000383  00000-0  10000-3 0  9990
2 29640   4.2228  65.0297 0004119 328.1929  93.9831  1.00271499 37353
FENGYUN 3A              
1 32958U 08026A   17044.52269148  .00000009  00000-0  23892-4 0  9993
2 32958  98.4231  79.2941 0008561 281.2317  78.7899 14.19649559451799
FENGYUN 2E              
1 33463U 08066A   17043.62520348 -.00000220  00000-0  00000+0 0  9998
2 33463   1.9476  66.1735 0004759 223.8725 164.2402  1.00263547 29884
NOAA 19                 
1 33591U 09005A   17044.49021674  .00000072  00000-0  64444-4 0  9999
2 33591  99.0766   9.6680 0012998 259.9099 100.0605 14.12152611413195
GOES 14                 
1 35491U 09033A   17043.89173154 -.00000117  00000-0  00000+0 0  9999
2 35491   0.0186 143.4951 0006832 100.6105 115.7869  1.00273164 27952
METEOR-M 1              
1 35865U 09049A   17044.48793723  .00000002  00000-0  19540-4 0  9993
2 35865  98.4332  71.6310 0003202 132.2101 227.9350 14.22097340384525
GOES 15                 
1 36411U 10008A   17043.97833970  .00000067  00000-0  00000+0 0  9997
2 36411   0.0621 253.5970 0000652 279.2044 187.1623  1.00273083 25489
COMS 1                  
1 36744U 10032A   17043.86714861 -.00000367  00000-0  00000+0 0  9992
2 36744   0.0108 105.7124 0001577 246.1109 231.6184  1.00272339 24444
FENGYUN 3B              
1 37214U 10059A   17044.51147665 -.00000014  00000-0  15435-4 0  9991
2 37214  98.8783   3.7272 0017584 128.8727 231.4009 14.15840491325043
ELEKTRO-L 1 (GOMS 2)    
1 37344U 11001A   17044.22283870 -.00000220  00000-0  00000+0 0  9996
2 37344   2.1872  78.4624 0004619 263.4611 216.0196  1.00238462 22260
SUOMI NPP               
1 37849U 11061A   17043.68048262  .00000002  00000-0  21500-4 0  9995
2 37849  98.7251 344.1531 0001647 110.5048 312.1025 14.19559109274420
FENGYUN 2F              
1 38049U 12002A   17042.90289258 -.00000381  00000-0  00000+0 0  9998
2 38049   1.4617  77.7436 0000810 198.3029 303.0392  1.00264652 18678
METEOSAT-10 (MSG-3)     
1 38552U 12035B   17043.60293188 -.00000029  00000-0  00000+0 0  9997
2 38552   0.6914  44.8841 0000833 221.2984  93.7715  1.00265034 17018
METOP-B                 
1 38771U 12049A   17043.69429918  .00000006  00000-0  22819-4 0  9997
2 38771  98.6965 105.8434 0000807 160.4644   6.2731 14.21490236228582
FENGYUN 3C              
1 39260U 13052A   17044.35820542 -.00000003  00000-0  19102-4 0  9997
2 39260  98.6633 116.8403 0001155  55.9604 304.1683 14.19639411175817
METEOR-M 2              
1 40069U 14037A   17044.55714827 -.00000050  00000-0 -31662-5 0  9999
2 40069  98.6728 101.7470 0005011 203.1810 156.9145 14.20638970135003
HIMAWARI-8              
1 40267U 14060A   17044.21086905 -.00000299  00000-0  00000+0 0  9997
2 40267   0.0557 284.8480 0001308  72.5935   2.5208  1.00268530  8667
FENGYUN 2G              
1 40367U 14090A   17044.00804008 -.00000352  00000-0  00000+0 0  9990
2 40367   0.6896 264.6729 0001375 288.8844  57.1810  1.00265772  7835
METEOSAT-11 (MSG-4)     
1 40732U 15034A   17043.30026787 -.00000054  00000-0  00000+0 0  9996
2 40732   2.0481 247.4399 0001769  57.9677 301.5999  1.00275372  5834
ELEKTRO-L 2             
1 41105U 15074A   17043.62495192 -.00000121  00000-0  00000+0 0  9995
2 41105   0.0777 110.7693 0000812 274.2049  58.8845  1.00272860  4312
HIMAWARI-9              
1 41836U 16064A   17044.21052742 -.00000297  00000-0  00000+0 0  9996
2 41836   0.0022 146.0477 0001098 187.4256  26.5211  1.00271203  1103
GOES 16                 
1 41866U 16071A   17043.85115388 -.00000206  00000-0  00000+0 0  9992
2 41866   0.0395 265.2809 0001844  92.6290   2.0518  1.00272306   907
FENGYUN 4A              
1 41882U 16077A   17043.69386550 -.00000324  00000-0  00000+0 0  9990
2 41882   0.2657 271.9091 0002634 201.8325  18.4227  1.00270072   777
CYGFM05                 
1 41884U 16078A   17044.18686238  .00001181  00000-0  66242-4 0  9990
2 41884  34.9583  73.9576 0017270 316.3788  43.5549 15.13393047  9048
CYGFM04                 
1 41885U 16078B   17044.17210174  .00000383  00000-0  22480-4 0  9991
2 41885  34.9521  73.8105 0015638 314.4442  45.4978 15.13730144  9040
CYGFM02                 
1 41886U 16078C   17044.17810979  .00000205  00000-0  12936-4 0  9999
2 41886  34.9619  73.8963 0016410 314.9820  44.9552 15.13598177  9045
CYGFM01                 
1 41887U 16078D   17043.46465902  .00001034  00000-0  58364-4 0  9999
2 41887  34.9553  78.4731 0017695 310.1253  49.7907 15.13300612  8930
CYGFM08                 
1 41888U 16078E   17044.18385309  .00001232  00000-0  68924-4 0  9995
2 41888  34.9516  73.9070 0016903 316.8713  43.0677 15.13457726  9033
CYGFM06                 
1 41889U 16078F   17044.43049426  .00000961  00000-0  53527-4 0  9992
2 41889  34.9611  72.1665 0015116 314.1655  45.7814 15.13896257  9074
CYGFM07                 
1 41890U 16078G   17044.42746781  .00001414  00000-0  77818-4 0  9994
2 41890  34.9529  72.1141 0014747 316.6134  43.3417 15.13962945  9072
CYGFM03                 
1 41891U 16078H   17044.49017565  .00001286  00000-0  70777-4 0  9997
2 41891  34.9567  71.6910 0014209 318.3876  41.5757 15.14035007  9087
